{"version": 0.6, "generator": "Overpass API 0.7.57 93a4d346", "osm3s": {"timestamp_osm_base": "2022-01-18T12:28:52Z", "copyright": "The data included in this document is from www.openstreetmap.org. The data is made available under ODbL."}, "elements": [{"type": "node", "id": 33209389, "lat": 63.4223283, "lon": 10.3955232, "tags": {"amenity": "cafe", "name": "Edgar", "wheelchair": "yes"}}, {"type": "node", "id": 164365011, "lat": 63.4273822, "lon": 10.5223889, "tags": {"amenity": "cafe", "name": "Ranheim bydelskafe"}}, {"type": "node", "id": 198029285, "lat": 63.3782696, "lon": 10.262345, "tags": {"amenity": "cafe", "dnt:classification": "servering", "dnt:iid": "1423", "dnt:lock": "yes", "ele": "290", "hiking": "yes", "idrettsanleggregisteret:iid": "1601027701", "name": "R\u00f8nningen", "operator": "Trondhjems Turistforening", "owner": "Trondheim kommune- utbygg", "ski": "yes", "source": "Den Norske Turistforening", "source:date": "2011-03-22 11:06:20", "website": "http://ut.no/hytte/roenningen2"}}, {"type": "node", "id": 220916220, "lat": 63.4282336, "lon": 10.403182, "tags": {"addr:city": "Trondheim", "addr:housenumber": "3", "addr:postcode": "7014", "addr:street": "Nedre Bakklandet", "amenity": "cafe", "cuisine": "coffee_shop", "name": "Dromedar Kaffebar", "opening_hours": "Mo-Th 07:30-19:00; Fr 07:30-18:00; Sa 10:00-18:00; Su 10:30-18:00", "phone": "+47 73 52 25 02", "website": "http://www.dromedar.no", "wheelchair": "no"}}, {"type": "node", "id": 220919505, "lat": 63.4295581, "lon": 10.3693331, "tags": {"addr:city": "Trondheim", "addr:housenumber": "32b", "addr:postcode": "7018", "addr:street": "Ilevollen", "amenity": "cafe", "name": "Ila Brainnstasjon", "opening_hours": "Tu 17:00-22:00;Fr 17:00-24:00; Sa 11:00-24:00; Su 11:00-17:00", "phone": "+47 916 19 176", "website": "https://www.ilabrainnstasjon.no/"}}, {"type": "node", "id": 220920781, "lat": 63.4334374, "lon": 10.3994946, "tags": {"amenity": "cafe", "cuisine": "coffee_shop", "name": "Dromedar Kaffebar", "opening_hours": "Mo-Fr 07:00-19:00; Sa 09:00-19:00; Su 11:30-18:00", "toilets:wheelchair": "yes", "wheelchair": "yes"}}, {"type": "node", "id": 270521794, "lat": 63.430796, "lon": 10.397448, "tags": {"addr:city": "Trondheim", "addr:housenumber": "2", "addr:postcode": "7011", "addr:street": "Kongens gate", "amenity": "cafe", "cuisine": "coffee_shop", "name": "Dromedar Nordre", "opening_hours": "Mo-Fr 07:00-19:00; Sa 09:00-18:00; Su 11:00-17:00", "wheelchair": "yes"}}, {"type": "node", "id": 270521795, "lat": 63.431047, "lon": 10.397427, "tags": {"addr:city": "Trondheim", "addr:housenumber": "4", "addr:postcode": "7011", "addr:street": "Nordre gate", "amenity": "cafe", "name": "Somma", "phone": "+47 73 52 62 42", "toilets:wheelchair": "yes", "website": "http://www.ristorantino.no/somma", "wheelchair": "limited"}}, {"type": "node", "id": 270521796, "lat": 63.4320649, "lon": 10.3968134, "tags": {"addr:city": "Trondheim", "addr:housenumber": "18", "addr:postcode": "7011", "addr:street": "Dronningens gate", "amenity": "cafe", "cuisine": "cake", "name": "Bristol Conditori", "opening_hours": "Mo-Sa 08:00-18:00"}}, {"type": "node", "id": 270521797, "lat": 63.427394, "lon": 10.393448, "tags": {"addr:city": "Trondheim", "addr:housenumber": "9A", "addr:postcode": "7013", "addr:street": "Bispegata", "amenity": "cafe", "name": "Caf\u00e9 Ni Muser", "opening_hours": "Mo-Su 11:00-23:00; Th-Sa 11:00-24:00", "outdoor_seating": "yes", "phone": "+47 73 53 63 11", "website": "https://nimuser.no/", "wheelchair": "no"}}, {"type": "node", "id": 305721626, "lat": 63.3860427, "lon": 10.0743278, "tags": {"amenity": "cafe", "name": "Stabburskafeen"}}, {"type": "node", "id": 365723876, "lat": 63.4354282, "lon": 10.4569457}, {"type": "node", "id": 383901490, "lat": 63.4291794, "lon": 10.3929539}, {"type": "node", "id": 386579884, "lat": 63.4310094, "lon": 10.3952086, "tags": {"amenity": "cafe", "name": "Hevd h\u00e5ndverksbakeri", "opening_hours": "Mo-Fr 07:00-18:00; Sa 09:00-17:00; Su 10:00-17:00", "shop": "bakery", "website": "https://hevd.no/"}}, {"type": "node", "id": 430912891, "lat": 63.4083876, "lon": 10.5643149}, {"type": "node", "id": 431038572, "lat": 63.4168227, "lon": 10.4043538, "tags": {"amenity": "cafe", "cuisine": "coffee_shop", "level": "1", "name": "Cafe-sito Stripa", "operator": "Studentsamskipnaden i Trondheim"}}, {"type": "node", "id": 431912400, "lat": 63.4156545, "lon": 10.4069816, "tags": {"amenity": "cafe", "cuisine": "coffee_shop", "level": "-1", "name": "Cafe-sito Realfag", "operator": "Studentsamskipnaden i Trondheim", "wheelchair": "yes"}}, {"type": "node", "id": 435107148, "lat": 63.4086022, "lon": 10.4695102, "tags": {"amenity": "cafe", "cuisine": "coffee_shop", "name": "Cafe-sito Dragvoll", "operator": "Studentsamskipnaden i Trondheim"}}, {"type": "node", "id": 439766273, "lat": 63.416753, "lon": 10.4049641, "tags": {"amenity": "cafe", "level": "1", "name": "SiT Kafe Hangaren", "operator": "Studentsamskipnaden i Trondheim", "wheelchair": "yes"}}, {"type": "node", "id": 439766278, "lat": 63.4154175, "lon": 10.4044192, "tags": {"amenity": "cafe", "level": "1", "name": "SiT Kafe Realfag", "operator": "Studentsamskipnaden i Trondheim", "wheelchair": "yes"}}, {"type": "node", "id": 439766280, "lat": 63.4179625, "lon": 10.4013426, "tags": {"amenity": "cafe", "level": "1", "name": "SiT Kafe Elektro (Magneten)", "operator": "Studentsamskipnaden i Trondheim", "wheelchair": "limited"}}, {"type": "node", "id": 439766281, "lat": 63.4185644, "lon": 10.4039337, "tags": {"amenity": "cafe", "level": "1", "name": "SiT Kafe Kjelhuset", "operator": "Studentsamskipnaden i Trondheim", "wheelchair": "yes"}}, {"type": "node", "id": 441595801, "lat": 63.4282941, "lon": 10.3866153, "tags": {"amenity": "cafe", "name": "Caf\u00e9 Magasinet"}}, {"type": "node", "id": 447881767, "lat": 63.4272943, "lon": 10.4109046, "tags": {"alt_name": "Festningskaf\u00e9en", "amenity": "cafe", "name": "Vertshuset Festningen", "wheelchair": "yes"}}, {"type": "node", "id": 532099969, "lat": 63.4108616, "lon": 10.4096639, "tags": {"amenity": "cafe", "cuisine": "coffee_shop", "operator": "ISS Catering AS"}}, {"type": "node", "id": 534802913, "lat": 63.4066107, "lon": 10.4744169, "tags": {"amenity": "cafe", "cuisine": "coffee_shop", "level": "1", "name": "SiT Matbaren Idrettsbygget", "operator": "Studentsamskipnaden i Trondheim", "wheelchair": "yes"}}, {"type": "node", "id": 845471299, "lat": 63.4291064, "lon": 10.3927945}, {"type": "node", "id": 872871887, "lat": 63.417597, "lon": 10.2617417}, {"type": "node", "id": 872872192, "lat": 63.4174925, "lon": 10.2609152}, {"type": "node", "id": 872872229, "lat": 63.4175021, "lon": 10.2617472}, {"type": "node", "id": 872988661, "lat": 63.4175893, "lon": 10.2609096}, {"type": "node", "id": 876832759, "lat": 63.4229136, "lon": 10.3047909, "tags": {"amenity": "cafe", "dnt:classification": "servering", "dnt:iid": "2063", "hiking": "yes", "name": "Lavollen", "opening_hours": "We 11:00-19:00; Th, Fr 11:00-15:00; Sa, Su 11:00-16:00", "ski": "yes", "source": "Den Norske Turistforening", "source:date": "2011-06-16 09:07:10", "website": "https://www.facebook.com/LavollenBymarka"}}, {"type": "node", "id": 956343588, "lat": 63.433073, "lon": 10.397058, "tags": {"addr:city": "Trondheim", "addr:housenumber": "29", "addr:postcode": "7011", "addr:street": "Olav Tryggvasons gate", "amenity": "cafe", "cuisine": "burger", "drink:beer": "served;bottled;draught", "name": "Bror", "name:en": "Bror Burgers and Tacos", "opening_hours": "Mo-Th 11:00-00:30, Fr,Sa 11:00-02:30, Su 13:00-02:30", "phone": "+47 458 31 526", "website": "https://www.brorbar.no/", "wheelchair": "no"}}, {"type": "node", "id": 1025050202, "lat": 63.3782327, "lon": 10.3116121}, {"type": "node", "id": 1025050261, "lat": 63.3782873, "lon": 10.3117144}, {"type": "node", "id": 1025050291, "lat": 63.3782386, "lon": 10.3116245}, {"type": "node", "id": 1025050317, "lat": 63.3782901, "lon": 10.3117937}, {"type": "node", "id": 1025050332, "lat": 63.3782996, "lon": 10.3117405}, {"type": "node", "id": 1025050362, "lat": 63.3781371, "lon": 10.3117086}, {"type": "node", "id": 1025050365, "lat": 63.3782709, "lon": 10.3117532}, {"type": "node", "id": 1025050380, "lat": 63.3782717, "lon": 10.3115202}, {"type": "node", "id": 1025050390, "lat": 63.3782368, "lon": 10.3119192}, {"type": "node", "id": 1025050429, "lat": 63.3782237, "lon": 10.3116596}, {"type": "node", "id": 1025050439, "lat": 63.3781889, "lon": 10.3115863}, {"type": "node", "id": 1025050443, "lat": 63.3783357, "lon": 10.3116554}, {"type": "node", "id": 1025402443, "lat": 63.4339387, "lon": 10.4036284, "tags": {"amenity": "cafe", "name": "LatteLiten", "website": "https://latteliten.no/", "wheelchair": "yes"}}, {"type": "node", "id": 1032245384, "lat": 63.4355044, "lon": 10.3948663}, {"type": "node", "id": 1032245512, "lat": 63.4355986, "lon": 10.3947901}, {"type": "node", "id": 1032245526, "lat": 63.435509, "lon": 10.3942358}, {"type": "node", "id": 1032245827, "lat": 63.4354147, "lon": 10.394312}, {"type": "node", "id": 1067571662, "lat": 63.3944289, "lon": 10.488577}, {"type": "node", "id": 1067571663, "lat": 63.3944102, "lon": 10.4884494}, {"type": "node", "id": 1067571664, "lat": 63.3946665, "lon": 10.4885134}, {"type": "node", "id": 1067571665, "lat": 63.3944313, "lon": 10.4886857}, {"type": "node", "id": 1067571666, "lat": 63.3946237, "lon": 10.488293}, {"type": "node", "id": 1067571667, "lat": 63.3944166, "lon": 10.488586}, {"type": "node", "id": 1067571668, "lat": 63.3946424, "lon": 10.4884203}, {"type": "node", "id": 1067571669, "lat": 63.3946518, "lon": 10.4884135}, {"type": "node", "id": 1079824214, "lat": 63.4534675, "lon": 10.4617882}, {"type": "node", "id": 1079824220, "lat": 63.4534526, "lon": 10.461814}, {"type": "node", "id": 1079824225, "lat": 63.4534591, "lon": 10.4617783}, {"type": "node", "id": 1079824229, "lat": 63.4534006, "lon": 10.4617078}, {"type": "node", "id": 1079824235, "lat": 63.4533989, "lon": 10.4617515}, {"type": "node", "id": 1079824238, "lat": 63.4533996, "lon": 10.4616362}, {"type": "node", "id": 1079824258, "lat": 63.4534088, "lon": 10.4617176}, {"type": "node", "id": 1079824287, "lat": 63.4534229, "lon": 10.4615391}, {"type": "node", "id": 1079824313, "lat": 63.453457, "lon": 10.4615186}, {"type": "node", "id": 1079824324, "lat": 63.4534219, "lon": 10.461663}, {"type": "node", "id": 1079824327, "lat": 63.4534456, "lon": 10.4615664}, {"type": "node", "id": 1079824330, "lat": 63.4535069, "lon": 10.4615794}, {"type": "node", "id": 1262669827, "lat": 63.4137873, "lon": 10.4154803, "tags": {"amenity": "cafe", "name": "Aktivitetshuset"}}, {"type": "node", "id": 1280103070, "lat": 63.4204731, "lon": 10.3906316, "tags": {"amenity": "cafe", "wheelchair": "yes"}}, {"type": "node", "id": 1280103071, "lat": 63.4195532, "lon": 10.3916123, "tags": {"amenity": "cafe", "name": "mat & caf\u00e9", "wheelchair": "yes"}}, {"type": "node", "id": 1288237314, "lat": 63.4018117, "lon": 10.2939845, "tags": {"amenity": "cafe", "fixme": "position", "hiking": "yes", "idrettsanleggregisteret:iid": "1601024301", "name": "D\u00f8vehytta \u00abGranly\u00bb", "owner": "Trondheim D\u00f8ves Idrettsl.", "source": "Idrettsanleggregisteret", "website": "http://tdil.no/?page_id=16"}}, {"type": "node", "id": 1296779402, "lat": 63.4198262, "lon": 10.3865601, "tags": {"amenity": "cafe", "wheelchair": "yes"}}, {"type": "node", "id": 1428041534, "lat": 63.4023926, "lon": 10.2429824}, {"type": "node", "id": 1428041535, "lat": 63.4023966, "lon": 10.2426512}, {"type": "node", "id": 1428041536, "lat": 63.4024556, "lon": 10.2429861}, {"type": "node", "id": 1428041537, "lat": 63.4024595, "lon": 10.2426549}, {"type": "node", "id": 1498250725, "lat": 63.3971945, "lon": 10.293759}, {"type": "node", "id": 1498250727, "lat": 63.3972154, "lon": 10.2936059}, {"type": "node", "id": 1498250734, "lat": 63.3972283, "lon": 10.2936147}, {"type": "node", "id": 1498250736, "lat": 63.3972543, "lon": 10.2934237}, {"type": "node", "id": 1498250738, "lat": 63.3972844, "lon": 10.2938201}, {"type": "node", "id": 1498250741, "lat": 63.3973313, "lon": 10.2934761}, {"type": "node", "id": 1667298886, "lat": 63.4316359, "lon": 10.4075838, "tags": {"amenity": "cafe", "cuisine": "coffee_shop", "name": "Dromedar Kaffebar - Bakke bru", "wheelchair": "yes"}}, {"type": "node", "id": 1773141129, "lat": 63.4191367, "lon": 10.2114837}, {"type": "node", "id": 1773141130, "lat": 63.4191468, "lon": 10.2116407}, {"type": "node", "id": 1773141133, "lat": 63.4192856, "lon": 10.2113057}, {"type": "node", "id": 1773141134, "lat": 63.4192933, "lon": 10.2114254}, {"type": "node", "id": 1773141135, "lat": 63.4192993, "lon": 10.2111299}, {"type": "node", "id": 1773141136, "lat": 63.4193101, "lon": 10.2112978}, {"type": "node", "id": 1773141137, "lat": 63.4193329, "lon": 10.2111192}, {"type": "node", "id": 1773141138, "lat": 63.4193686, "lon": 10.2115659}, {"type": "node", "id": 1814356215, "lat": 63.4424156, "lon": 10.290663}, {"type": "node", "id": 1814356216, "lat": 63.4424589, "lon": 10.2905989}, {"type": "node", "id": 1814356217, "lat": 63.4424683, "lon": 10.2908411}, {"type": "node", "id": 1814356218, "lat": 63.4425116, "lon": 10.290777}, {"type": "node", "id": 1875747275, "lat": 63.4318806, "lon": 10.3773694}, {"type": "node", "id": 1875747282, "lat": 63.4318233, "lon": 10.3777178}, {"type": "node", "id": 1875747284, "lat": 63.4319036, "lon": 10.3777837}, {"type": "node", "id": 1875747287, "lat": 63.4319609, "lon": 10.3774353}, {"type": "node", "id": 1879193005, "lat": 63.4213872, "lon": 10.3571418, "tags": {"amenity": "cafe", "name": "Caf\u00e9 Borgstua", "website": "https://sverresborg.no/borgstua"}}, {"type": "node", "id": 1886510721, "lat": 63.430614, "lon": 10.3981221, "tags": {"addr:city": "Trondheim", "addr:housenumber": "8", "addr:postcode": "7011", "addr:street": "Kongens gate", "amenity": "cafe", "cuisine": "italian", "internet_access": "wlan", "internet_access:fee": "no", "name": "Tulla Fischer", "opening_hours": "Mo-Th 10:00-24:00; Fr-Sa 10:00-02:00; Su 13:00-23:00", "website": "https://tulla.no/", "wheelchair": "limited"}}, {"type": "node", "id": 2185492616, "lat": 63.423355, "lon": 10.4026797, "tags": {"amenity": "cafe", "name": "Caf\u00e9 Midtbyen", "opening_hours": "We 19:00-22:00; Sa 11:00-15:00"}}, {"type": "node", "id": 2425941131, "lat": 63.3948728, "lon": 10.3175831}, {"type": "node", "id": 2425941132, "lat": 63.3948842, "lon": 10.317729}, {"type": "node", "id": 2425941134, "lat": 63.3949032, "lon": 10.3174393}, {"type": "node", "id": 2425941135, "lat": 63.3949131, "lon": 10.3175675}, {"type": "node", "id": 2425941136, "lat": 63.394945, "lon": 10.3176703}, {"type": "node", "id": 2425941137, "lat": 63.3949477, "lon": 10.3177044}, {"type": "node", "id": 2425941138, "lat": 63.3949492, "lon": 10.3174215}, {"type": "node", "id": 2425941139, "lat": 63.3949678, "lon": 10.3176615}, {"type": "node", "id": 2964548846, "lat": 63.4306357, "lon": 10.39706, "tags": {"amenity": "cafe", "brand": "Starbucks", "brand:wikidata": "Q37158", "brand:wikipedia": "en:Starbucks", "cuisine": "coffee_shop", "name": "Starbucks", "official_name": "Starbucks Coffee", "opening_hours": "Mo-Fr 07:00-21:00; Sa 09:00-19:30; Su 10:00-19:30", "outdoor_seating": "no", "takeaway": "yes", "wheelchair": "yes"}}, {"type": "node", "id": 2967641034, "lat": 63.4273995, "lon": 10.4032957, "tags": {"addr:city": "Trondheim", "addr:housenumber": "33", "addr:postcode": "7013", "addr:street": "\u00d8vre Bakklandet", "amenity": "cafe", "name": "Baklandet Skydsstation", "opening_hours": "Mo-Fr 11:00-01:00; Sa, Su 12:00-01:00", "website": "http://www.skydsstation.no"}}, {"type": "node", "id": 3052351992, "lat": 63.4329569, "lon": 10.3908227, "tags": {"amenity": "cafe", "name": "Coffee Annan", "opening_hours": "Mo-Th 09:00-21:30; Fr 09:00-18:30", "operator": "ISAK", "website": "http://isak.no/ymse/coffee-annan/", "wheelchair": "yes"}}, {"type": "node", "id": 3052352004, "lat": 63.4308819, "lon": 10.3831626, "tags": {"amenity": "cafe", "name": "L\u00f8kkan Caf\u00e9 og Catering", "opening_hours": "Mo-Fr 10:00-15:00", "opening_hours:signed": "no", "website": "https://lokkancafe.no/"}}, {"type": "node", "id": 3192168510, "lat": 63.4282004, "lon": 10.4028177, "tags": {"amenity": "cafe", "branch": "Nedre Bakklandet 2, Trondheim", "brand": "Kaffebrenneriet", "cuisine": "coffee_shop", "name": "Kaffebrenneriet", "opening_hours": "Mo-Fr 07:00-18:00, Sa-Su 09:00-18:00", "ref:kaffebrenneriet": "149", "website": "https://kaffebrenneriet.no/butikkene/nedre-bakklandet-2", "wheelchair": "yes"}}, {"type": "node", "id": 3225752839, "lat": 63.4417012, "lon": 10.4590608, "tags": {"amenity": "cafe", "level": "0", "name": "Cafe Mocca", "opening_hours": "Mo-Fr 09:30-20:00; Sa 09:30-18:00", "website": "https://cafe-mocca.no/"}}, {"type": "node", "id": 3230730625, "lat": 63.4402459, "lon": 10.4626787, "tags": {"amenity": "cafe", "level": "0", "name": "Caf\u00e9 Benoni", "opening_hours": "Mo-Fr 09:30-20:00; Sa 10:00-18:00", "website": "http://www.cafebenoni.no/"}}, {"type": "node", "id": 3239607052, "lat": 63.4297724, "lon": 10.3936675}, {"type": "node", "id": 3239607058, "lat": 63.4291377, "lon": 10.3927865, "tags": {"access": "customers", "door": "hinged", "entrance": "yes", "level": "0"}}, {"type": "node", "id": 3240235687, "lat": 63.429481, "lon": 10.3929048}, {"type": "node", "id": 3364444297, "lat": 63.4271586, "lon": 10.3953215, "tags": {"amenity": "cafe", "name": "To t\u00e5rn", "wheelchair": "yes"}}, {"type": "node", "id": 3468462964, "lat": 63.432793, "lon": 10.3993739, "tags": {"amenity": "cafe", "name": "Hagen", "opening_hours": "Mo-Sa 10:00-18:00", "phone": "+47 400 56 108", "website": "https://www.facebook.com/fairytaleCupcakes/"}}, {"type": "node", "id": 3518327961, "lat": 63.4338152, "lon": 10.3960511, "tags": {"amenity": "cafe", "level": "2", "name": "Byhaven Kaf\u00e9", "opening_hours": "Mo-Fr 09:00-20:00;Sa 09:00-18:00", "website": "http://www.byhaven-kafe.com/"}}, {"type": "node", "id": 3520798456, "lat": 63.4334546, "lon": 10.396114, "tags": {"amenity": "cafe", "level": "-1", "name": "Caf\u00e9 Dis", "opening_hours": "Mo-Fr 09:00-20:00;Sa 09:00-18:00", "website": "https://www.facebook.com/CafeDis"}}, {"type": "node", "id": 3520798459, "lat": 63.4337165, "lon": 10.3963832, "tags": {"amenity": "cafe", "level": "1", "name": "Jordb\u00e6rpikene", "opening_hours": "Mo-Fr 09:00-20:00;Sa 09:00-18:00", "website": "http://jordbarpikene.no/index.php?page=trh-byhaven"}}, {"type": "node", "id": 3622436725, "lat": 63.4192423, "lon": 10.2114418}, {"type": "node", "id": 3622436726, "lat": 63.4192428, "lon": 10.2114497}, {"type": "node", "id": 3622436727, "lat": 63.4192531, "lon": 10.2116066}, {"type": "node", "id": 3622436728, "lat": 63.4192538, "lon": 10.2116168}, {"type": "node", "id": 3622436729, "lat": 63.4193324, "lon": 10.2115775}, {"type": "node", "id": 3622436730, "lat": 63.4193333, "lon": 10.2115913}, {"type": "node", "id": 3622436731, "lat": 63.4193437, "lon": 10.2112878}, {"type": "node", "id": 3622436732, "lat": 63.4193523, "lon": 10.211285}, {"type": "node", "id": 3622436733, "lat": 63.4193549, "lon": 10.2113259}, {"type": "node", "id": 3622436734, "lat": 63.4193587, "lon": 10.2114117}, {"type": "node", "id": 3622436735, "lat": 63.4193711, "lon": 10.2113207}, {"type": "node", "id": 3622436736, "lat": 63.4193765, "lon": 10.211406}, {"type": "node", "id": 3622539654, "lat": 63.4175895, "lon": 10.2609305}, {"type": "node", "id": 3622539655, "lat": 63.4175974, "lon": 10.2617804}, {"type": "node", "id": 3622539657, "lat": 63.4176212, "lon": 10.2609287}, {"type": "node", "id": 3622539658, "lat": 63.4176232, "lon": 10.2610995}, {"type": "node", "id": 3622539659, "lat": 63.4176255, "lon": 10.2612082}, {"type": "node", "id": 3622539661, "lat": 63.4176306, "lon": 10.2617264}, {"type": "node", "id": 3622539662, "lat": 63.4176312, "lon": 10.2617784}, {"type": "node", "id": 3622539663, "lat": 63.4176314, "lon": 10.261099}, {"type": "node", "id": 3622539664, "lat": 63.4176315, "lon": 10.2617264}, {"type": "node", "id": 3622539665, "lat": 63.4176326, "lon": 10.2612078}, {"type": "node", "id": 3732152557, "lat": 63.4317805, "lon": 10.3973247, "tags": {"addr:housenumber": "10", "addr:street": "Nordre gate", "amenity": "cafe", "branch": "Dronningens gate 9, Trondheim", "brand": "Kaffebrenneriet", "cuisine": "coffee_shop", "name": "Kaffebrenneriet", "opening_hours": "Mo-Fr 07:00-19:00, Sa 09:00-18:00, Su 10:00-17:00", "ref:kaffebrenneriet": "894", "website": "https://kaffebrenneriet.no/butikkene/dronningens-gate-9", "wheelchair": "limited"}}, {"type": "node", "id": 3834083059, "lat": 63.432717, "lon": 10.4076487, "tags": {"amenity": "cafe", "name": "Jacobsen & Svart", "wheelchair": "yes"}}, {"type": "node", "id": 4004323595, "lat": 63.4310452, "lon": 10.3979344, "tags": {"amenity": "cafe", "branch": "Nordre gate", "brand": "Espresso House", "cuisine": "coffee_shop", "name": "Espresso House Nordre gate", "opening_hours": "Mo-Fr 08:00-20:00; Su 10:00-18:00; Sa 09:00-20:00", "phone": "+47 45940559", "ref:espressohouse": "1900", "website": "https://no.espressohouse.com/coffee-shops/nordregate/"}}, {"type": "node", "id": 4019887089, "lat": 63.4084559, "lon": 10.5641058}, {"type": "node", "id": 4019887090, "lat": 63.4085277, "lon": 10.5645433}, {"type": "node", "id": 4019887091, "lat": 63.408596, "lon": 10.5643342}, {"type": "node", "id": 4036210579, "lat": 63.4294716, "lon": 10.4037949, "tags": {"addr:city": "Trondheim", "addr:housenumber": "20D", "addr:postcode": "7014", "addr:street": "Nedre Bakklandet", "amenity": "cafe", "cuisine": "coffee_shop", "name": "Kaf\u00e9 Soil", "opening_hours": "Tu-Sa 11:00-17:00; Su 11:00-18:00", "website": "https://www.facebook.com/Kaf%C3%A9-Soil-658986930898313/", "wheelchair": "no"}}, {"type": "node", "id": 4224522189, "lat": 63.4328246, "lon": 10.3981943, "tags": {"amenity": "cafe", "cuisine": "coffee_shop", "name": "Godt Br\u00f8d", "opening_hours": "Mo-Sa 06:00-18:00"}}, {"type": "node", "id": 4270461117, "lat": 63.4343345, "lon": 10.4004887, "tags": {"amenity": "cafe", "name": "Caf\u00e9 Le Fr\u00e8re", "opening_hours": "Mo-Fr 08:00-17:00; Sa 10:30-16:30; Su 11:30-16:00", "toilets:wheelchair": "no", "wheelchair": "no"}}, {"type": "node", "id": 4330810146, "lat": 63.4302616, "lon": 10.3966456, "tags": {"amenity": "cafe", "name": "Caf\u00e9 Horneman", "opening_hours": "Mo-Sa 09:30-15:30", "phone": "+47 73841700", "website": "http://hornemansgarden.no/cafe-horneman/"}}, {"type": "node", "id": 4341579854, "lat": 63.4570564, "lon": 10.4471012, "tags": {"amenity": "cafe", "level": "0", "name": "Ladekaia", "outdoor_seating": "yes", "website": "https://www.ladekaia.no/", "wheelchair": "limited"}}, {"type": "node", "id": 4403880230, "lat": 63.4321067, "lon": 10.396792, "tags": {"amenity": "cafe", "name": "Caf\u00e9 Bagatell"}}, {"type": "node", "id": 4418668469, "lat": 63.4292766, "lon": 10.3650138, "tags": {"amenity": "cafe", "name": "Kaf\u00e9n i Ila"}}, {"type": "node", "id": 4473491279, "lat": 63.4376439, "lon": 10.4209317, "tags": {"amenity": "cafe", "name": "Ivar matlaus", "wikidata": "Q6098442"}}, {"type": "node", "id": 4510574093, "lat": 63.433809, "lon": 10.4152126, "tags": {"amenity": "cafe", "name": "Bakericafe", "opening_hours": "Mo-Fr 07:00-17:00; Sa, Su 09:00-16:00"}}, {"type": "node", "id": 4630232865, "lat": 63.4362703, "lon": 10.4209066, "tags": {"addr:city": "Trondheim", "addr:housenumber": "52", "addr:postcode": "7068", "addr:street": "Innherredsveien", "amenity": "cafe", "name": "Ladejarlen Kaf\u00e9", "opening_hours": "Mo-Su 17:00-01:30"}}, {"type": "node", "id": 4697327342, "lat": 63.4435238, "lon": 10.4464102, "tags": {"amenity": "cafe", "level": "1", "name": "Coop Obs! Kaf\u00e9", "opening_hours": "Mo-Fr 09:00-21:00; Sa 09:00-20:00", "wheelchair": "limited"}}, {"type": "node", "id": 4698014889, "lat": 63.4437891, "lon": 10.4470098, "tags": {"amenity": "cafe", "level": "2", "name": "Jordb\u00e6rpikene", "opening_hours": "Mo-Fr 09:00-21:00; Sa 09:00-20:00"}}, {"type": "node", "id": 4744954425, "lat": 63.4306015, "lon": 10.4004164, "tags": {"amenity": "cafe", "name": "Sellanraa bok & bar", "opening_hours": "Mo-Fr 07:30-20:00; Sa 11:00-18:00", "toilets:wheelchair": "yes", "website": "https://www.sellanraabar.no/", "wheelchair": "yes"}}, {"type": "node", "id": 4935675561, "lat": 63.433557, "lon": 10.3928918, "tags": {"amenity": "cafe", "name": "Vi fire"}}, {"type": "node", "id": 5063837703, "lat": 63.4178539, "lon": 10.3518765, "tags": {"amenity": "cafe", "name": "Rosenborg Bakeri"}}, {"type": "node", "id": 5264198014, "lat": 63.4348822, "lon": 10.4135804, "tags": {"amenity": "cafe", "level": "0", "name": "Dromedar Kaffebar", "opening_hours": "Mo-Fr 07:00-19:00;Sa 09:00-18:00;Su 10:00-17:00;PH closed", "ref:solsiden": "305", "toilets": "yes", "website": "http://dromedar.no/"}}, {"type": "node", "id": 5355083226, "lat": 63.4349222, "lon": 10.4118711, "tags": {"amenity": "cafe", "level": "0", "name": "Kvikk", "website": "https://kvikkbar.no/"}}, {"type": "node", "id": 5355108222, "lat": 63.434797, "lon": 10.4119293, "tags": {"amenity": "cafe", "level": "0", "name": "Rosenborg bakeri", "opening_hours": "Mo-Fr 09:00-21:00, Sa 10:00-18:00"}}, {"type": "node", "id": 5412188037, "lat": 63.3516726, "lon": 10.3539317, "tags": {"amenity": "cafe", "name": "By\u00e5sen Bakeri"}}, {"type": "node", "id": 5702345829, "lat": 63.3628858, "lon": 10.3794116, "tags": {"amenity": "cafe", "contact:website": "http://www.biltema.no/no/Kundeservice/BIltema-Cafe/", "cuisine": "burger", "name": "Biltema caf\u00e9"}}, {"type": "node", "id": 5808759362, "lat": 63.4334067, "lon": 10.3962179, "tags": {"amenity": "cafe", "contact:website": "http://byhaven.no/butikker/alma-mater/", "cuisine": "french", "name": "Alma Mater", "opening_hours": "Mo-Fr 09:00-20:00; Sa 10:00-18:00; Su closed", "outdoor_seating": "no"}}, {"type": "node", "id": 6295836687, "lat": 63.3580555, "lon": 10.3739243, "tags": {"amenity": "cafe", "name": "Tiller Torget Cafe"}}, {"type": "node", "id": 6425664800, "lat": 63.4298603, "lon": 10.3933682}, {"type": "node", "id": 6425664808, "lat": 63.4304085, "lon": 10.3931323}, {"type": "node", "id": 6425664809, "lat": 63.4303527, "lon": 10.3931254}, {"type": "node", "id": 6425664810, "lat": 63.4301954, "lon": 10.3930466}, {"type": "node", "id": 6425664811, "lat": 63.4301895, "lon": 10.3932069}, {"type": "node", "id": 6425664814, "lat": 63.4295237, "lon": 10.3928699}, {"type": "node", "id": 6425664820, "lat": 63.4302783, "lon": 10.3930617}, {"type": "node", "id": 6425664822, "lat": 63.430237, "lon": 10.3932153}, {"type": "node", "id": 6425664823, "lat": 63.4302484, "lon": 10.3932179}, {"type": "node", "id": 6425664827, "lat": 63.4304099, "lon": 10.3930856}, {"type": "node", "id": 6425838294, "lat": 63.4292298, "lon": 10.3927635}, {"type": "node", "id": 6425838295, "lat": 63.429236, "lon": 10.392914}, {"type": "node", "id": 6425838300, "lat": 63.4298654, "lon": 10.393687}, {"type": "node", "id": 6428385237, "lat": 63.4291741, "lon": 10.3931135}, {"type": "node", "id": 6428385245, "lat": 63.4295253, "lon": 10.3928945}, {"type": "node", "id": 6428385246, "lat": 63.4294765, "lon": 10.3928187}, {"type": "node", "id": 6428385247, "lat": 63.4295198, "lon": 10.3928115}, {"type": "node", "id": 6428385258, "lat": 63.4297876, "lon": 10.3933521}, {"type": "node", "id": 6428385259, "lat": 63.4299073, "lon": 10.3936947}, {"type": "node", "id": 6428385260, "lat": 63.4299512, "lon": 10.3935473}, {"type": "node", "id": 6428385261, "lat": 63.429957, "lon": 10.3933903}, {"type": "node", "id": 6428385262, "lat": 63.4290945, "lon": 10.3931114}, {"type": "node", "id": 6428385263, "lat": 63.4291737, "lon": 10.3931258}, {"type": "node", "id": 6428385264, "lat": 63.4292374, "lon": 10.392942}, {"type": "node", "id": 6439068828, "lat": 63.4295224, "lon": 10.3928509}, {"type": "node", "id": 6439068842, "lat": 63.4297794, "lon": 10.3935136}, {"type": "node", "id": 6439068843, "lat": 63.429845, "lon": 10.3936801}, {"type": "node", "id": 6439068872, "lat": 63.4291671, "lon": 10.3931246}, {"type": "node", "id": 6442392047, "lat": 63.4304093, "lon": 10.3931063, "tags": {"access": "customers", "door": "hinged", "entrance": "yes", "level": "0"}}, {"type": "node", "id": 6514997343, "lat": 63.4352364, "lon": 10.4157889, "tags": {"addr:city": "Trondheim", "addr:housenumber": "22A", "addr:postcode": "7042", "addr:street": "Innherredsveien", "amenity": "cafe", "cuisine": "ice_cream", "diet:vegan": "yes", "name": "Gola", "opening_hours": "Tu-Su 11:00-19:00", "website": "https://www.facebook.com/golasolsiden"}}, {"type": "node", "id": 6579767274, "lat": 63.4159151, "lon": 10.3956816, "tags": {"amenity": "cafe", "name": "Slabberas", "outdoor_seating": "yes"}}, {"type": "node", "id": 6703502358, "lat": 63.4346516, "lon": 10.4122814, "tags": {"amenity": "cafe", "level": "1", "name": "Jordb\u00e6rpikene", "website": "https://www.jordbarpikene.no"}}, {"type": "node", "id": 6989070166, "lat": 63.4320741, "lon": 10.3946786, "tags": {"amenity": "cafe", "name": "Godt br\u00f8d", "opening_hours": "Mo-Fr 07:00-18:00; Sa 09:00-18:00; Su 10:00-17:00", "shop": "bakery", "website": "https://www.godtbrod.no/Bakeverksted/Dronningensgate"}}, {"type": "node", "id": 7007039199, "lat": 63.4312357, "lon": 10.4009275, "tags": {"amenity": "cafe", "name": "Digs Caf\u00e9 & Bar", "opening_hours": "Mo-Fr 08:00-20:00; Sa 11:00-18:00", "operator": "Digs", "website": "https://digs.no/cafe-bar/"}}, {"type": "node", "id": 7007039201, "lat": 63.4308492, "lon": 10.3995112, "tags": {"amenity": "cafe", "name": "Hevd S\u00f8ndre", "opening_hours": "Mo-Fr 09:30-17:00;Sa 12:00-16:00", "website": "https://www.hevd.no/"}}, {"type": "node", "id": 7093845083, "lat": 63.4319457, "lon": 10.3775277}, {"type": "node", "id": 7093860593, "lat": 63.4318523, "lon": 10.3775412}, {"type": "node", "id": 7111024260, "lat": 63.4382946, "lon": 10.3998283, "tags": {"amenity": "cafe", "name": "Brygge kafe"}}, {"type": "node", "id": 7126930030, "lat": 63.4380379, "lon": 10.3993661, "tags": {"amenity": "cafe", "name": "Jacobsen og Svart"}}, {"type": "node", "id": 7233878609, "lat": 63.4434539, "lon": 10.4461734, "tags": {"amenity": "cafe", "branch": "City Lade", "brand": "Espresso House", "cuisine": "coffee_shop", "name": "Espresso House City Lade", "opening_hours": "Mo-Fr 09:00-21:00, Sa 09:00-20:00", "phone": "+47 45940533", "ref:espressohouse": "1125", "website": "https://no.espressohouse.com/coffee-shops/city-lade/"}}, {"type": "node", "id": 7646854527, "lat": 63.3983749, "lon": 10.3967748, "tags": {"amenity": "cafe", "name": "Caf\u00e9 Aksen", "outdoor_seating": "yes"}}, {"type": "node", "id": 7946024194, "lat": 63.4225015, "lon": 10.3937712, "tags": {"amenity": "cafe", "name": "Dromedar \u00d8ya - Mat og Vin", "opening_hours": "Mo-Fr 07:30-20:00; Sa-Su 10:00-20:00", "website": "https://dromedar.no/"}}, {"type": "node", "id": 8006543650, "lat": 63.4334518, "lon": 10.4015763, "tags": {"amenity": "cafe", "name": "Onkel Svanhild", "opening_hours": "Mo-Sa 10:00-18:00", "website": "https://onkelsvanhild.no/"}}, {"type": "node", "id": 8382016785, "lat": 63.3515742, "lon": 10.3575228}, {"type": "node", "id": 8382016786, "lat": 63.3513513, "lon": 10.3574359}, {"type": "node", "id": 8382016787, "lat": 63.3513704, "lon": 10.3571348}, {"type": "node", "id": 8382016788, "lat": 63.351551, "lon": 10.3572567}, {"type": "node", "id": 8807112315, "lat": 63.4192924, "lon": 10.2114112, "tags": {"entrance": "main"}}, {"type": "node", "id": 8807112316, "lat": 63.4192902, "lon": 10.2113766, "tags": {"entrance": "main"}}, {"type": "node", "id": 8851207593, "lat": 63.2884487, "lon": 10.5719326}, {"type": "node", "id": 8851207594, "lat": 63.288351, "lon": 10.5720919}, {"type": "node", "id": 8851207595, "lat": 63.288324, "lon": 10.5720099}, {"type": "node", "id": 8851207596, "lat": 63.2883137, "lon": 10.5720266}, {"type": "node", "id": 8851207597, "lat": 63.2882325, "lon": 10.5717799}, {"type": "node", "id": 8851207598, "lat": 63.2883468, "lon": 10.5715935}, {"type": "node", "id": 8851207599, "lat": 63.2884278, "lon": 10.5718395}, {"type": "node", "id": 8851207600, "lat": 63.2884215, "lon": 10.5718499}, {"type": "node", "id": 8851207641, "lat": 63.2656577, "lon": 10.4032321}, {"type": "node", "id": 8851207642, "lat": 63.2656603, "lon": 10.403302}, {"type": "node", "id": 8851207643, "lat": 63.2656493, "lon": 10.4033039}, {"type": "node", "id": 8851207644, "lat": 63.2656507, "lon": 10.4033431}, {"type": "node", "id": 8851207645, "lat": 63.2655777, "lon": 10.403356}, {"type": "node", "id": 8851207646, "lat": 63.2655843, "lon": 10.4035429}, {"type": "node", "id": 8851207647, "lat": 63.2654883, "lon": 10.40356}, {"type": "node", "id": 8851207648, "lat": 63.2654737, "lon": 10.4031546}, {"type": "node", "id": 8851207649, "lat": 63.2655708, "lon": 10.4031375}, {"type": "node", "id": 8851207650, "lat": 63.2655722, "lon": 10.4031773}, {"type": "node", "id": 8851207651, "lat": 63.2656442, "lon": 10.4031646}, {"type": "node", "id": 8851207652, "lat": 63.2656467, "lon": 10.403234}, {"type": "node", "id": 8857358342, "lat": 63.4212183, "lon": 10.3337553, "tags": {"amenity": "cafe", "name": "Sommerseter Kafe", "opening_hours": "Mo-Fr 11:00-17:00; Sa-Su 10:00-16:00", "operator": "Trondheim Golfklubb", "website": "https://golfklubben.no/"}}, {"type": "node", "id": 8895635185, "lat": 63.4276242, "lon": 10.3860419, "tags": {"amenity": "cafe", "name": "Tantes hage", "opening_hours": "Su 10:00-18:00"}}, {"type": "node", "id": 8914989068, "lat": 63.4267964, "lon": 10.4000199, "tags": {"amenity": "cafe", "name": "Streif Bakeri og Caf\u00e9"}}, {"type": "node", "id": 8916231417, "lat": 63.4301361, "lon": 10.3856515, "tags": {"addr:housenumber": "55", "addr:postcode": "7012", "addr:street": "Kongens gate", "amenity": "cafe", "name": "Stammen", "opening_hours": "We 17:00-20:00", "website": "https://stammencafe.no/"}}, {"type": "node", "id": 8939919229, "lat": 63.4361018, "lon": 10.4546581}, {"type": "node", "id": 8939919230, "lat": 63.4360355, "lon": 10.4546128}, {"type": "node", "id": 8939919231, "lat": 63.4359855, "lon": 10.4552054}, {"type": "node", "id": 8939919232, "lat": 63.436068, "lon": 10.4552617}, {"type": "node", "id": 8939919238, "lat": 63.4361256, "lon": 10.4548401}, {"type": "node", "id": 8939919239, "lat": 63.4360874, "lon": 10.4551202}, {"type": "node", "id": 8939919243, "lat": 63.4360962, "lon": 10.4546991}, {"type": "node", "id": 8939919244, "lat": 63.4360811, "lon": 10.4548097}, {"type": "node", "id": 8939921877, "lat": 63.4360286, "lon": 10.4546631}, {"type": "node", "id": 8939921878, "lat": 63.4360569, "lon": 10.4546823}, {"type": "node", "id": 8939921882, "lat": 63.4360588, "lon": 10.4555365}, {"type": "node", "id": 8939921883, "lat": 63.4360795, "lon": 10.4556172}, {"type": "node", "id": 8939921896, "lat": 63.4354461, "lon": 10.4568137}, {"type": "node", "id": 8939921897, "lat": 63.4355442, "lon": 10.4570862}, {"type": "node", "id": 8939921898, "lat": 63.4355956, "lon": 10.4571494}, {"type": "node", "id": 8939921913, "lat": 63.4360926, "lon": 10.4554645}, {"type": "node", "id": 8939921914, "lat": 63.4361009, "lon": 10.4555118}, {"type": "node", "id": 8939921915, "lat": 63.4360995, "lon": 10.4555756}, {"type": "node", "id": 8939921916, "lat": 63.436088, "lon": 10.4556291}, {"type": "node", "id": 8939922001, "lat": 63.435702, "lon": 10.4570262}, {"type": "node", "id": 8939922002, "lat": 63.4356839, "lon": 10.4570851}, {"type": "node", "id": 8939922003, "lat": 63.4356646, "lon": 10.457057}, {"type": "node", "id": 8939922004, "lat": 63.4356413, "lon": 10.4571317}, {"type": "node", "id": 8939922005, "lat": 63.4356134, "lon": 10.4570967}, {"type": "node", "id": 8939922006, "lat": 63.4356052, "lon": 10.4571235}, {"type": "node", "id": 8939922007, "lat": 63.435653, "lon": 10.4571865}, {"type": "node", "id": 8939922008, "lat": 63.435645, "lon": 10.45721}, {"type": "node", "id": 8939922009, "lat": 63.4354719, "lon": 10.4566243}, {"type": "node", "id": 8939922010, "lat": 63.4354994, "lon": 10.456643}, {"type": "node", "id": 8939922011, "lat": 63.4355344, "lon": 10.45685}, {"type": "node", "id": 8939922012, "lat": 63.4355546, "lon": 10.456691}, {"type": "node", "id": 8939922013, "lat": 63.4356343, "lon": 10.4569884}, {"type": "node", "id": 8939922014, "lat": 63.4356085, "lon": 10.4569466}, {"type": "node", "id": 8939922015, "lat": 63.4355831, "lon": 10.4569048}, {"type": "node", "id": 8939922016, "lat": 63.435611, "lon": 10.4567492}, {"type": "node", "id": 8939922017, "lat": 63.435622, "lon": 10.4569}, {"type": "node", "id": 8939922018, "lat": 63.4356462, "lon": 10.4567883}, {"type": "node", "id": 8939922019, "lat": 63.4356484, "lon": 10.4569391}, {"type": "node", "id": 8939922021, "lat": 63.4356849, "lon": 10.456996}, {"type": "node", "id": 8939936954, "lat": 63.4360612, "lon": 10.4546304}, {"type": "node", "id": 8949424795, "lat": 63.4360286, "lon": 10.4548898, "tags": {"entrance": "yes", "level": "0"}}, {"type": "node", "id": 8961054454, "lat": 63.4356011, "lon": 10.4568044}, {"type": "node", "id": 9002576409, "lat": 63.4534499, "lon": 10.461825}, {"type": "node", "id": 9002576410, "lat": 63.4534593, "lon": 10.4618221}, {"type": "node", "id": 9002576411, "lat": 63.4533921, "lon": 10.4617433}, {"type": "node", "id": 9002576412, "lat": 63.4533966, "lon": 10.4617609}, {"type": "node", "id": 9002576413, "lat": 63.4534952, "lon": 10.4616281}, {"type": "node", "id": 9002576414, "lat": 63.4534772, "lon": 10.4617033}, {"type": "node", "id": 9002576415, "lat": 63.4534977, "lon": 10.461728}, {"type": "node", "id": 9002576416, "lat": 63.4535158, "lon": 10.4616528}, {"type": "node", "id": 9002576417, "lat": 63.4535007, "lon": 10.4615719}, {"type": "node", "id": 9002576418, "lat": 63.4534623, "lon": 10.461525}, {"type": "node", "id": 9002576419, "lat": 63.4534773, "lon": 10.4614627}, {"type": "node", "id": 9002576420, "lat": 63.4535158, "lon": 10.4615091}, {"type": "node", "id": 9153012696, "lat": 63.2980948, "lon": 10.4827119, "tags": {"amenity": "cafe", "name": "Hj\u00f8rnet Cafe & Restaurant", "opening_hours": "Mo-Fr 11:00-22:00; Sa-Su 14:00-22:00", "website": "https://www.hj\u00f8rnet.no/"}}, {"type": "way", "id": 73713128, "nodes": [872871887, 872872229, 872872192, 872988661, 3622539654, 3622539657, 3622539658, 3622539663, 3622539665, 3622539659, 3622539664, 3622539661, 3622539662, 3622539655, 872871887], "tags": {"amenity": "cafe", "building": "yes", "dnt:classification": "servering", "dnt:iid": "2062", "hiking": "yes", "name": "Skistua", "opening_hours": "PH,Mo-Su 11:00-15:00", "operator": "Trondhjems Skiklubb", "ski": "yes", "source": "Den Norske Turistforening", "source:date": "2011-06-16 09:07:18", "tourism": "cabin", "website": "https://skistua.no/", "wheelchair": "yes"}}, {"type": "way", "id": 88224366, "nodes": [1025050380, 1025050443, 1025050332, 1025050261, 1025050365, 1025050317, 1025050390, 1025050362, 1025050439, 1025050429, 1025050291, 1025050202, 1025050380], "tags": {"amenity": "cafe", "building": "yes", "capacity": "45", "hiking": "yes", "name": "Sparebank1-hytta", "operator": "Tr\u00f8nderhopp", "phone": "+47 93604126", "ski": "yes", "website": "http://www.tronderhopp.no/sparebank-1-hytta"}}, {"type": "way", "id": 88951482, "nodes": [1032245526, 1032245827, 1032245384, 1032245512, 1032245526], "tags": {"amenity": "cafe", "building": "yes", "name": "Skuret", "outdoor_seating": "yes", "source": "bing"}}, {"type": "way", "id": 91869145, "nodes": [1067571666, 1067571668, 1067571669, 1067571664, 1067571665, 1067571667, 1067571662, 1067571663, 1067571666], "tags": {"amenity": "cafe", "building": "yes", "dnt:classification": "servering", "dnt:iid": "2060", "hiking": "yes", "name": "Estenstadhytta", "ski": "yes", "source": "Den Norske Turistforening", "source:date": "2011-06-16 09:07:40", "tourism": "cabin", "website": "http://www.estenstadhytta.no/"}}, {"type": "way", "id": 93144595, "nodes": [1079824313, 9002576418, 9002576419, 9002576420, 9002576417, 1079824330, 9002576413, 9002576416, 9002576415, 9002576414, 1079824225, 1079824214, 9002576410, 1079824220, 9002576409, 9002576412, 1079824235, 9002576411, 1079824229, 1079824258, 1079824324, 1079824238, 1079824287, 1079824327, 1079824313], "tags": {"addr:housenumber": "101", "addr:street": "Fagerheim all\u00e9", "amenity": "cafe", "building": "yes", "hiking": "yes", "name": "Sponhuset", "opening_hours": "Mo-Fr 11:00-16:00; Sa-Su 11:00-18:00", "outdoor_seating": "yes", "website": "https://sponhuset.no/", "wheelchair": "limited"}}, {"type": "way", "id": 129428444, "nodes": [1428041537, 1428041536, 1428041534, 1428041535, 1428041537], "tags": {"alt_name": "Gr\u00f8nlia", "amenity": "cafe", "building": "yes", "dnt:classification": "servering", "dnt:iid": "2061", "hiking": "yes", "name": "Gr\u00f8nnlia", "official_name": "Gr\u00f8nnlia", "opening_hours": "Mo 11:00-19:00; Tu-Fr 10:00-15:00; We 10:00-20:00; Sa-Su 10:00-16:00", "ski": "yes", "source": "Den Norske Turistforening", "source:date": "2011-06-16 09:07:28", "website": "https://gronlia.wordpress.com/"}}, {"type": "way", "id": 136575343, "nodes": [1498250741, 1498250738, 1498250725, 1498250727, 1498250734, 1498250736, 1498250741], "tags": {"amenity": "cafe", "idrettsanleggregisteret:iid": "1601027501", "name": "Politihytta, Bymarka", "owner": "Politiets IL", "source": "Idrettsanleggregisteret", "tourism": "cabin"}}, {"type": "way", "id": 165784123, "nodes": [1773141137, 3622436731, 3622436732, 3622436733, 3622436735, 3622436736, 3622436734, 1773141138, 3622436729, 3622436730, 3622436728, 3622436727, 1773141130, 1773141129, 3622436726, 3622436725, 1773141134, 8807112315, 8807112316, 1773141133, 1773141136, 1773141135, 1773141137], "tags": {"amenity": "cafe", "building": "yes", "dnt:classification": "servering", "dnt:iid": "2058", "hiking": "yes", "name": "Elgsethytta", "opening_hours": "Tu-Th 11:00-20:00; Fr 10:00-15:00; Sa-Su 10:00-16:00", "ski": "yes", "source": "Den Norske Turistforening", "source:date": "2011-06-16 09:06:59", "tourism": "cabin", "website": "http://www.elgsethytta.com/", "wikidata": "Q11967069"}}, {"type": "way", "id": 170283034, "nodes": [1814356215, 1814356216, 1814356218, 1814356217, 1814356215], "tags": {"amenity": "cafe", "building": "yes", "idrettsanleggregisteret:iid": "1601027901", "name": "Damhaugen", "opening_hours": "Jan 1 - Easter Sa-Su 10:00-16:00", "owner": "Trondheim kommune- utbygg", "ski": "yes", "source": "Idrettsanleggregisteret", "tourism": "cabin", "website": "http://trollail.no/damhaugen/"}}, {"type": "way", "id": 177105617, "nodes": [1875747287, 1875747275, 7093860593, 1875747282, 1875747284, 7093845083, 1875747287], "tags": {"amenity": "cafe", "building": "yes", "layer": "1", "name": "Lille Skansen", "outdoor_seating": "yes"}}, {"type": "way", "id": 234341848, "nodes": [2425941138, 2425941139, 2425941136, 2425941137, 2425941132, 2425941131, 2425941135, 2425941134, 2425941138], "tags": {"amenity": "cafe", "building": "yes", "idrettsanleggregisteret:iid": "1601026101", "name": "Hauken utfartshytte", "owner": "S\u00f8r-Tr\u00f8ndelag Handicapidrettskrets", "source": "Idrettsanleggregisteret", "tourism": "cabin"}}, {"type": "way", "id": 265135405, "nodes": [8851207652, 8851207651, 8851207650, 8851207649, 8851207648, 8851207647, 8851207646, 8851207645, 8851207644, 8851207643, 8851207642, 8851207641, 8851207652], "tags": {"amenity": "cafe", "building": "retail", "name": "Vassfjellkroa", "operator": "Vassfjellet skiheiser AS", "ref:bygningsnr": "10752027", "ski": "yes"}}, {"type": "way", "id": 399250139, "nodes": [430912891, 4019887090, 4019887091, 4019887089, 430912891], "tags": {"amenity": "cafe", "building": "yes", "hiking": "yes", "name": "Tj\u00f8nnstuggu", "ski": "yes"}}, {"type": "way", "id": 400924949, "nodes": [8851207600, 8851207599, 8851207598, 8851207597, 8851207596, 8851207595, 8851207594, 8851207593, 8851207600], "tags": {"amenity": "cafe", "building": "cabin", "hiking": "yes", "idrettsanleggregisteret:iid": "1662006001", "name": "Gjenvollhytta", "owner": "Kl\u00e6bu IL", "ref:bygningsnr": "12733585", "ski": "yes"}}, {"type": "way", "id": 685637218, "nodes": [6425664823, 6425664822, 6425664811, 6425664810, 6425664820, 6425664827, 6442392047, 6425664808, 6425664809, 6425664823], "tags": {"amenity": "cafe", "branch": "Trondheim Torg", "brand": "Espresso House", "buildingpart": "room", "cuisine": "coffee_shop", "indoor": "room", "level": "0", "name": "Espresso House Trondheim torg", "opening_hours": "Mo-Fr 08:00-20:00, Sa 08:30-18:00", "phone": "+47 21064832", "ref:espressohouse": "1124", "website": "https://no.espressohouse.com/coffee-shops/trondheim-torg/"}}, {"type": "way", "id": 685873399, "nodes": [6428385247, 6428385246, 3240235687, 6428385245, 6425664814, 6439068828, 6428385247], "tags": {"amenity": "cafe", "indoor": "room", "level": "0", "name": "Kvikk", "opening_hours": "Mo-Fr 09:00-20:00; Sa 09:00-18:00; Dec 1-24 Su 14:00-19:00; Dec 7-24 Sa 09:00-20:00; Dec 12-22 Mo-Fr 09:00-21:00; Dec 24 13:00+ off; Dec 25-26 off; Dec 27-30 18:00+ off; Dec 31 16:00+ off; Jan 1 off", "website": "https://www.kvikkbar.no/"}}, {"type": "way", "id": 685873414, "nodes": [6428385261, 6428385260, 6428385259, 6425838300, 6439068843, 3239607052, 6439068842, 6428385258, 6425664800, 6428385261], "tags": {"amenity": "cafe", "indoor": "room", "level": "2", "name": "Kaf\u00e9en Torvet", "opening_hours": "Mo-Fr 09:00-20:00; Sa 09:00-18:00; Dec 1-24 Su 14:00-19:00; Dec 7-24 Sa 09:00-20:00; Dec 12-22 Mo-Fr 09:00-21:00; Dec 24 13:00+ off; Dec 25-26 off; Dec 27-30 18:00+ off; Dec 31 16:00+ off; Jan 1 off", "outdoor_seating": "yes", "toilets:wheelchair": "yes", "website": "http://kafeentorvet.no/", "wheelchair": "yes"}}, {"type": "way", "id": 685873418, "nodes": [6425838294, 6425838295, 6428385264, 383901490, 6428385237, 6428385263, 6439068872, 6428385262, 845471299, 3239607058, 6425838294], "tags": {"amenity": "cafe", "indoor": "room", "level": "0", "name": "Jordb\u00e6rpikene", "opening_hours": "Mo-Fr 09:00-20:00; Sa 09:00-18:00; Dec 1-24 Su 14:00-19:00; Dec 7-24 Sa 09:00-20:00; Dec 12-22 Mo-Fr 09:00-21:00; Dec 24 13:00+ off; Dec 25-26 off; Dec 27-30 18:00+ off; Dec 31 16:00+ off; Jan 1 off", "website": "http://jordbarpikene.no/index.php?page=trh-torg"}}, {"type": "way", "id": 902453217, "nodes": [8382016785, 8382016786, 8382016787, 8382016788, 8382016785], "tags": {"amenity": "cafe", "building": "yes", "cuisine": "burger;fish_and_chips;kebab;salad", "name": "Stasjonscafe'n Heimdal", "outdoor_seating": "yes", "phone": "+47 988 88 430", "website": "https://www.facebook.com/pg/StasjonscafenHeimdal/"}}, {"type": "way", "id": 966305462, "nodes": [8939919231, 8949424795, 8939921878, 8939921877, 8939919230, 8939936954, 8939919229, 8939919243, 8939919244, 8939919238, 8939919239, 8939919232, 8939919231], "tags": {"amenity": "cafe", "buildingpart": "room", "indoor": "room", "level": "0", "name": "Krem mat & kaffehus", "opening_hours": "Mo-Fr 09:00-21:00; Sa 09:00-20:00; PH off", "website": "https://kremkaffe.no/"}}, {"type": "way", "id": 966305499, "nodes": [8939921916, 8939921915, 8939921914, 8939921913, 8939921882, 8939921883, 8939921916], "tags": {"amenity": "cafe", "buildingpart": "room", "indoor": "room", "level": "0", "name": "Krem kaffe & juice", "opening_hours": "Mo-Fr 09:00-21:00; Sa 09:00-20:00; PH off"}}, {"type": "way", "id": 966305534, "nodes": [8939922018, 8939922016, 8961054454, 8939922015, 8939922014, 8939922017, 8939922018], "tags": {"amenity": "cafe", "buildingpart": "room", "indoor": "room", "level": "1", "name": "Rosenborg Bakeri", "opening_hours": "Mo-Fr 09:00-21:00; Sa 09:00-20:00; PH off", "website": "https://www.rosenborgbakeri.no/"}}, {"type": "way", "id": 966611666, "nodes": [8939922012, 8939922010, 8939922009, 8939921896, 365723876, 8939921897, 8939921898, 8939922008, 8939922007, 8939922006, 8939922005, 8939922004, 8939922003, 8939922002, 8939922001, 8939922021, 8939922019, 8939922013, 8939922014, 8939922015, 8939922011, 8939922012], "tags": {"amenity": "cafe", "buildingpart": "room", "indoor": "room", "level": "1", "name": "Jordb\u00e6rpikene", "opening_hours": "Mo-Fr 09:00-21:00; Sa 09:00-20:00; PH off", "website": "https://www.jordbarpikene.no/"}}]}